{
    "links": {
        "self": "http://www.neowsapp.com/rest/v1/neo/3774575?api_key=iIulBulltgU6a56xZRHN4H3l9WmuAYTsLGpBGhQ2"
    },
    "id": "3774575",
    "neo_reference_id": "3774575",
    "name": "(2017 JN2)",
    "designation": "2017 JN2",
    "nasa_jpl_url": "http://ssd.jpl.nasa.gov/sbdb.cgi?sstr=3774575",
    "absolute_magnitude_h": 24.3,
    "estimated_diameter": {
        "kilometers": {
            "estimated_diameter_min": 0.0366906138,
            "estimated_diameter_max": 0.0820427065
        },
        "meters": {
            "estimated_diameter_min": 36.6906137531,
            "estimated_diameter_max": 82.0427064882
        },
        "miles": {
            "estimated_diameter_min": 0.0227984834,
            "estimated_diameter_max": 0.0509789586
        },
        "feet": {
            "estimated_diameter_min": 120.3760332259,
            "estimated_diameter_max": 269.1689931548
        }
    },
    "is_potentially_hazardous_asteroid": false,
    "close_approach_data": [
        {
            "close_approach_date": "2017-04-22",
            "close_approach_date_full": "2017-Apr-22 19:40",
            "epoch_date_close_approach": 1492890000000,
            "relative_velocity": {
                "kilometers_per_second": "10.6713436865",
                "kilometers_per_hour": "38416.8372713662",
                "miles_per_hour": "23870.7286923108"
            },
            "miss_distance": {
                "astronomical": "0.0452631696",
                "lunar": "17.6073729744",
                "kilometers": "6771273.761608752",
                "miles": "4207474.4122826976"
            },
            "orbiting_body": "Earth"
        }
    ],
    "orbital_data": {
        "orbit_id": "4",
        "orbit_determination_date": "2017-07-01 06:48:40",
        "first_observation_date": "2017-05-05",
        "last_observation_date": "2017-05-17",
        "data_arc_in_days": 12,
        "observations_used": 40,
        "orbit_uncertainty": "8",
        "minimum_orbit_intersection": ".0379726",
        "jupiter_tisserand_invariant": "3.860",
        "epoch_osculation": "2457880.5",
        "eccentricity": ".5001555984503835",
        "semi_major_axis": "1.832200435564117",
        "inclination": "6.800395657249771",
        "ascending_node_longitude": "191.987624096092",
        "orbital_period": "905.8533608076575",
        "perihelion_distance": ".9158151302334928",
        "perihelion_argument": "338.3106317212904",
        "aphelion_distance": "2.748585740894741",
        "perihelion_time": "2457834.532915881964",
        "mean_anomaly": "18.26802327888771",
        "mean_motion": ".3974153164028938",
        "equinox": "J2000",
        "orbit_class": {
            "orbit_class_type": "APO",
            "orbit_class_description": "Near-Earth asteroid orbits which cross the Earth’s orbit similar to that of 1862 Apollo",
            "orbit_class_range": "a (semi-major axis) > 1.0 AU; q (perihelion) < 1.017 AU"
        }
    },
    "is_sentry_object": false
}